ESTCUBE 1               
1 39161U 13021C   21124.04224314  .00000183  00000-0  36499-4 0  9994
2 39161  97.9391 206.2523 0008303 298.6750  61.3593 14.72465248429219
FENGYUN 3C              
1 39260U 13052A   21124.10902559  .00000002  00000-0  22108-4 0  9991
2 39260  98.5033 166.8436 0011574  20.1085 340.0547 14.15866362393996
CASSIOPE                
1 39265U 13055A   21124.14396696  .00005170  00000-0  14170-3 0  9992
2 39265  80.9669 338.5984 0650945  83.8834 283.6070 14.31985657393637
ZACUBE-1 (TSHEPISOSAT)  
1 39417U 13066B   21124.21106175  .00000334  00000-0  48002-4 0  9991
2 39417  97.5911 110.8361 0057372 307.2175  52.3811 14.81493786402521
CINEMA-3 (KHUSAT-2)     
1 39426U 13066L   21123.80309141  .00000180  00000-0  35501-4 0  9992
2 39426  97.7517  77.9624 0105557 108.0328 253.2414 14.69664103399093
TRITON-1                
1 39427U 13066M   21124.15499809  .00000270  00000-0  50424-4 0  9994
2 39427  97.7715  74.1326 0114394 132.1094 228.9906 14.68210725398910
DELFI-N3XT              
1 39428U 13066N   21124.11418652  .00000444  00000-0  77489-4 0  9991
2 39428  97.7767  72.5508 0120513 144.9790 215.9417 14.67965034398648
GOMX-1                  
1 39430U 13066Q   21124.10977334  .00000277  00000-0  59425-4 0  9994
2 39430  97.8133  49.7271 0149054 254.5748 103.8954 14.59594430396574
BRITE-PL1 (LEM)         
1 39431U 13066R   21124.20393710  .00000062  00000-0  22962-4 0  9994
2 39431  97.7575   7.9988 0203315  55.7993 306.2286 14.47135080393370
ICUBE-1                 
1 39432U 13066S   21123.79250880  .00000506  00000-0  56276-4 0  9996
2 39432  97.4778 144.1765 0031532 189.0465 171.0190 14.90847987403654
HUMSAT-D                
1 39433U 13066T   21124.07751353  .00000762  00000-0  78102-4 0  9996
2 39433  97.4736 151.2694 0030798 167.4748 192.7245 14.92848023405305
VELOX-PII               
1 39438U 13066Y   21123.75894107  .00000309  00000-0  47875-4 0  9990
2 39438  97.6396 100.9703 0070163 352.1836   7.8276 14.78202523400473
FIRST-MOVE              
1 39439U 13066Z   21123.66937424  .00000712  00000-0  92059-4 0  9993
2 39439  97.5967 111.6775 0063438 307.0500  52.4922 14.82557531401314
CUBEBUG-2 (LO-74)       
1 39440U 13066AA  21124.19116584  .00000347  00000-0  54751-4 0  9991
2 39440  97.6728  95.7291 0080492  20.2141 340.2226 14.76221623401094
NEE-02 KRYSAOR          
1 39441U 13066AB  21124.15346569  .00000259  00000-0  43612-4 0  9992
2 39441  97.6823  93.0531 0082336  31.0246 329.5789 14.75166726400841
FUNCUBE-1 (AO-73)       
1 39444U 13066AE  21124.22221283  .00000403  00000-0  55394-4 0  9999
2 39444  97.5819 113.2024 0056259 297.5696  61.9810 14.82396187401479
HINCUBE                 
1 39445U 13066AF  21123.75258080  .00000423  00000-0  58099-4 0  9999
2 39445  97.5834 112.6094 0056330 300.9677  58.6010 14.82226574400763
UWE-3                   
1 39446U 13066AG  21123.49527696  .00000371  00000-0  55491-4 0  9998
2 39446  97.6340 102.0464 0069387 347.2406  12.7047 14.78759789399864
AIST-1 (RS-41)          
1 39492U 13078C   21124.03758113  .00000239  00000-0  23218-4 0  9998
2 39492  82.4176 268.1700 0020767  26.8089 333.4200 14.88021621398891
SPROUT                  
1 39770U 14029E   21124.17363834  .00000883  00000-0  10134-3 0  9998
2 39770  97.9104 235.4997 0008993   3.4285 356.6987 14.88355945376752
UNISAT-6                
1 40012U 14033C   21124.18160147  .00000243  00000-0  43011-4 0  9998
2 40012  97.6801 328.9217 0059205  44.5955 315.9995 14.74293519369672
BUGSAT-1 (TITA)         
1 40014U 14033E   21123.93574282  .00000029  00000-0  83709-5 0  9992
2 40014  98.1092 101.8983 0030628 314.1292  45.7410 14.95715004374912
DUCHIFAT-1              
1 40021U 14033M   21123.71490962  .00000745  00000-0  80580-4 0  9996
2 40021  97.9698  63.4410 0011836 317.5464  42.4838 14.91297175373619
NANOSATC-BR1            
1 40024U 14033Q   21123.78783360  .00000447  00000-0  51785-4 0  9997
2 40024  97.9493  58.7477 0011272 323.4323  36.6123 14.90402444372942
QB50P1                  
1 40025U 14033R   21124.21408233  .00000455  00000-0  53809-4 0  9998
2 40025  97.9317  54.7889 0011675 330.6714  29.3846 14.89411432373343
DTUSAT-2                
1 40030U 14033W   21124.06902451  .00000402  00000-0  48808-4 0  9993
2 40030  97.9153  51.3279 0011086 327.7012  32.3525 14.88965283373229
QB50P2                  
1 40032U 14033Y   21123.76212903  .00000380  00000-0  46429-4 0  9999
2 40032  97.9158  51.0270 0011049 329.6490  30.4085 14.88921224372646
POLYITAN-1              
1 40042U 14033AJ  21123.78976294  .00000453  00000-0  53937-4 0  9995
2 40042  97.9409  55.1317 0013728 322.1492  37.8758 14.89213724372669
TIGRISAT                
1 40043U 14033AK  21124.14434000  .00000168  00000-0  31793-4 0  9990
2 40043  97.6773 330.2784 0060844  42.6992 317.8923 14.74519588369602
AISAT                   
1 40054U 14034B   21123.40069020  .00000612  00000-0  91615-4 0  9990
2 40054  98.3168 274.9987 0012812 181.9948 178.1213 14.78386074368873
CANX-4                  
1 40055U 14034C   21124.19112204  .00000150  00000-0  30349-4 0  9995
2 40055  98.2991 264.3396 0013447 216.5606 143.4685 14.75041095368411
CANX-5                  
1 40056U 14034D   21123.65300072  .00000152  00000-0  30657-4 0  9992
2 40056  98.2990 263.7748 0013417 218.6333 141.3916 14.75032092359110
VELOX-I                 
1 40057U 14034E   21124.06007982  .00000471  00000-0  72777-4 0  9996
2 40057  98.3225 276.7075 0010540 192.6609 167.4325 14.78146078368982
METEOR-M 2              
1 40069U 14037A   21124.20609916 -.00000039  00000-0  11514-5 0  9997
2 40069  98.4649 154.9718 0006959  74.3189 285.8757 14.20683726353751
DX1                     
1 40071U 14037C   21124.07746739  .00000184  00000-0  31028-4 0  9991
2 40071  98.4563 326.2869 0008193 181.6736 178.4446 14.81486374368724
UKUBE-1                 
1 40074U 14037F   21124.16379752  .00000362  00000-0  50037-4 0  9990
2 40074  98.4347 337.3946 0004444 152.9855 207.1589 14.84526748369333
FIREBIRD 3              
1 40377U 15003B   21124.05181088  .00002239  00000-0  85122-4 0  9999
2 40377  99.0923 256.0135 0117507 322.0824  37.2174 15.22141331346043
FIREBIRD 4              
1 40378U 15003C   21124.09539717  .00002202  00000-0  83619-4 0  9999
2 40378  99.0927 256.1996 0117594 321.7479  37.5451 15.22191363346054
GRIFEX                  
1 40379U 15003D   21123.57860410  .00001646  00000-0  70096-4 0  9995
2 40379  99.0887 245.2801 0128626 355.1525   4.8448 15.17889300345382
CP10 (EXOCUBE)          
1 40380U 15003E   21124.10153728  .00001459  00000-0  65860-4 0  9999
2 40380  99.0901 240.5164 0134555  11.8008 348.6319 15.15601098345101
DEORBITSAIL             
1 40719U 15032E   21123.63643278  .00000507  00000-0  78415-4 0  9991
2 40719  97.8335   9.7557 0014706 252.0068 107.9540 14.77329096313362
NUDT-PHONESAT           
1 40900U 15049B   21124.12386234  .00003626  00000-0  14308-3 0  9997
2 40900  97.4220 138.5363 0010238 300.0744 133.8393 15.26147969312062
XW-2A                   
1 40903U 15049E   21124.13680537  .00004124  00000-0  89101-4 0  9992
2 40903  97.2398 178.7516 0012693 168.4496 276.1141 15.45011233315950
XW-2C                   
1 40906U 15049H   21124.15515817  .00000845  00000-0  46514-4 0  9992
2 40906  97.4864 127.0653 0014224 348.1657  75.9807 15.16665196310859
XW-2D                   
1 40907U 15049J   21124.15832984  .00001027  00000-0  55322-4 0  9990
2 40907  97.4854 126.8480 0013452 345.0533  77.1824 15.16976553310883
LILACSAT-2              
1 40908U 15049K   21124.20725785  .00000511  00000-0  31358-4 0  9997
2 40908  97.5045 124.8045 0015704 359.1603  61.8086 15.14394946310538
XW-2E                   
1 40909U 15049L   21124.12051697  .00001770  00000-0  86722-4 0  9996
2 40909  97.4677 130.7645 0012201 332.1723 103.7945 15.19409930311204
XW-2F                   
1 40910U 15049M   21124.10870728  .00001678  00000-0  83556-4 0  9999
2 40910  97.4731 129.8282 0013367 330.9920 101.5669 15.18911831310993
XW-2B                   
1 40911U 15049N   21124.15871108  .00000974  00000-0  52809-4 0  9993
2 40911  97.4856 127.5354 0013426 346.3623  75.9282 15.16893838310779
KAITUO 1B               
1 40912U 15049P   21124.11400676  .00001844  00000-0  85118-4 0  9994
2 40912  97.4470 134.1940 0012728 301.4715 131.5706 15.21432017311455
TIANWANG 1A (TW-1A)     
1 40928U 15051D   21124.11100787  .00005526  00000-0  11703-3 0  9993
2 40928  97.0806 150.0852 0011589  94.7859 300.6498 15.45434387314846
LAPAN-A2                
1 40931U 15052B   21122.21108093  .00000633  00000-0 -87715-6 0  9999
2 40931   5.9983 222.1962 0012677 105.6172 254.5403 14.76672500302457
LQSAT                   
1 40958U 15057A   21124.12346225  .00000067  00000-0  17883-4 0  9993
2 40958  97.8063 182.2468 0017576 194.5355 165.5373 14.73171343299712
ATHENOXAT 1             
1 41168U 15077C   21123.64131374  .00002738  00000-0  10393-3 0  9997
2 41168  14.9844 230.4150 0012121 269.6865 129.2597 15.15556429297978
GALASSIA                
1 41170U 15077E   21123.62459314  .00002506  00000-0  91404-4 0  9991
2 41170  14.9879 221.3801 0012225 297.8603  62.0480 15.15782727297909
VELOX-II                
1 41171U 15077F   21123.79138893  .00002053  00000-0  76769-4 0  9990
2 41171  14.9910 276.0481 0008469 173.8487 186.1938 15.12464835297501
CHUBUSAT-2              
1 41338U 16012B   21124.23081445  .00000424  00000-0  26122-4 0  9993
2 41338  31.0024 107.1020 0013582  55.4693 304.7223 15.00507953285958
CHUBUSAT-3              
1 41339U 16012C   21124.19168138  .00000375  00000-0  22246-4 0  9992
2 41339  31.0110 104.6256 0013346  61.8146 298.3826 15.00656925285940
HORYU-4                 
1 41340U 16012D   21123.62467574  .00000713  00000-0  46696-4 0  9998
2 41340  31.0048  92.3518 0013711  87.9863 272.2343 15.01854159286044
